{
  "type": "FeatureCollection",
  "features": [
    {
      "type": "Feature",
      "geometry": {
        "type": "Point",
        "coordinates": [
          8.371620921823665,
          49.003296452194945
        ]
      },
      "properties": {
        "name": "3_3d_ovl.png",
        "rotation": -12.25474192615556,
        "size": 110
      }
    },
    {
      "type": "Feature",
      "geometry": {
        "type": "Point",
        "coordinates": [
          8.462104794026295,
          49.033985494180605
        ]
      },
      "properties": {
        "name": "3_7c_ovl.png",
        "rotation": 28.877681459718623,
        "size": 110
      }
    },
    {
      "type": "Feature",
      "geometry": {
        "type": "Point",
        "coordinates": [
          8.398690659175879,
          49.01359422592299
        ]
      },
      "properties": {
        "name": "2_4f_ovl.png",
        "rotation": -15.766918045879706,
        "size": 110
      }
    },
    {
      "type": "Feature",
      "geometry": {
        "type": "Point",
        "coordinates": [
          8.317890557109228,
          49.0316545580608
        ]
      },
      "properties": {
        "name": "2_11c_ovl.png",
        "rotation": 24.785989793676464,
        "size": 110
      }
    },
    {
      "type": "Feature",
      "geometry": {
        "type": "Point",
        "coordinates": [
          8.414693959049234,
          49.023824239089976
        ]
      },
      "properties": {
        "name": "2_4a_ovl.png",
        "rotation": 16.671355629386305,
        "size": 110
      }
    },
    {
      "type": "Feature",
      "geometry": {
        "type": "Point",
        "coordinates": [
          8.449844248695982,
          49.02094632022367
        ]
      },
      "properties": {
        "name": "2_5a_ovl.png",
        "rotation": -29.272662817485838,
        "size": 110
      }
    },
    {
      "type": "Feature",
      "geometry": {
        "type": "Point",
        "coordinates": [
          8.455931540288514,
          48.999272287342976
        ]
      },
      "properties": {
        "name": "2_10c_ovl.png",
        "rotation": 15.72538847082663,
        "size": 110
      }
    },
    {
      "type": "Feature",
      "geometry": {
        "type": "Point",
        "coordinates": [
          8.339949289141678,
          48.99783925735733
        ]
      },
      "properties": {
        "name": "2_6a_ovl.png",
        "rotation": -28.939452292088085,
        "size": 110
      }
    },
    {
      "type": "Feature",
      "geometry": {
        "type": "Point",
        "coordinates": [
          8.432672300046532,
          49.028168709657415
        ]
      },
      "properties": {
        "name": "3_5c_ovl.png",
        "rotation": 3.231919255349517,
        "size": 110
      }
    },
    {
      "type": "Feature",
      "geometry": {
        "type": "Point",
        "coordinates": [
          8.384536898424066,
          49.00317943569298
        ]
      },
      "properties": {
        "name": "2_7a_ovl.png",
        "rotation": 4.934724185334801,
        "size": 110
      }
    },
    {
      "type": "Feature",
      "geometry": {
        "type": "Point",
        "coordinates": [
          8.39053604476938,
          49.01563116933431
        ]
      },
      "properties": {
        "name": "2_4g_ovl.png",
        "rotation": 23.87036474922801,
        "size": 110
      }
    },
    {
      "type": "Feature",
      "geometry": {
        "type": "Point",
        "coordinates": [
          8.312973413638677,
          48.99060559655782
        ]
      },
      "properties": {
        "name": "2_11a_ovl.png",
        "rotation": 11.639898404244256,
        "size": 110
      }
    },
    {
      "type": "Feature",
      "geometry": {
        "type": "Point",
        "coordinates": [
          8.388837531391452,
          49.02764290109117
        ]
      },
      "properties": {
        "name": "2_7h_ovl.png",
        "rotation": 16.268761048791703,
        "size": 110
      }
    },
    {
      "type": "Feature",
      "geometry": {
        "type": "Point",
        "coordinates": [
          8.343131105164163,
          49.014224111278324
        ]
      },
      "properties": {
        "name": "2_9e_ovl.png",
        "rotation": 14.065844659606377,
        "size": 110
      }
    },
    {
      "type": "Feature",
      "geometry": {
        "type": "Point",
        "coordinates": [
          8.316749325077168,
          49.01507201480735
        ]
      },
      "properties": {
        "name": "2_1c_ovl.png",
        "rotation": 5.814160810709872,
        "size": 110
      }
    },
    {
      "type": "Feature",
      "geometry": {
        "type": "Point",
        "coordinates": [
          8.415840173433402,
          48.99720133669913
        ]
      },
      "properties": {
        "name": "2_9b_ovl.png",
        "rotation": -24.21290212083388,
        "size": 110
      }
    },
    {
      "type": "Feature",
      "geometry": {
        "type": "Point",
        "coordinates": [
          8.436972842257514,
          49.037086425002045
        ]
      },
      "properties": {
        "name": "3_5b_ovl.png",
        "rotation": -5.0699243648368295,
        "size": 110
      }
    },
    {
      "type": "Feature",
      "geometry": {
        "type": "Point",
        "coordinates": [
          8.449290026146077,
          49.0021692488362
        ]
      },
      "properties": {
        "name": "3_1d_ovl.png",
        "rotation": -20.768710078443075,
        "size": 110
      }
    },
    {
      "type": "Feature",
      "geometry": {
        "type": "Point",
        "coordinates": [
          8.385789458816854,
          48.99264154213724
        ]
      },
      "properties": {
        "name": "2_3c_ovl.png",
        "rotation": -21.039891512725017,
        "size": 110
      }
    },
    {
      "type": "Feature",
      "geometry": {
        "type": "Point",
        "coordinates": [
          8.456562148519755,
          49.023225048884036
        ]
      },
      "properties": {
        "name": "3_2c_ovl.png",
        "rotation": -16.78927775182985,
        "size": 110
      }
    },
    {
      "type": "Feature",
      "geometry": {
        "type": "Point",
        "coordinates": [
          8.335423515005587,
          49.001149529899955
        ]
      },
      "properties": {
        "name": "2_6g_ovl.png",
        "rotation": -9.202305816597551,
        "size": 110
      }
    },
    {
      "type": "Feature",
      "geometry": {
        "type": "Point",
        "coordinates": [
          8.425226266994358,
          49.00262002164149
        ]
      },
      "properties": {
        "name": "3_5d_ovl.png",
        "rotation": 11.51429708542723,
        "size": 110
      }
    },
    {
      "type": "Feature",
      "geometry": {
        "type": "Point",
        "coordinates": [
          8.40635812444527,
          49.01905226851274
        ]
      },
      "properties": {
        "name": "3_3h_ovl.png",
        "rotation": -2.5385021749588503,
        "size": 110
      }
    },
    {
      "type": "Feature",
      "geometry": {
        "type": "Point",
        "coordinates": [
          8.370993701897653,
          49.02628934877776
        ]
      },
      "properties": {
        "name": "3_4b_ovl.png",
        "rotation": -27.58174754459632,
        "size": 110
      }
    },
    {
      "type": "Feature",
      "geometry": {
        "type": "Point",
        "coordinates": [
          8.404995508495416,
          48.997911068115606
        ]
      },
      "properties": {
        "name": "2_1d_ovl.png",
        "rotation": 19.704163340810716,
        "size": 110
      }
    },
    {
      "type": "Feature",
      "geometry": {
        "type": "Point",
        "coordinates": [
          8.480379133737678,
          49.02714549944955
        ]
      },
      "properties": {
        "name": "2_2d_ovl.png",
        "rotation": 10.400223217303967,
        "size": 110
      }
    },
    {
      "type": "Feature",
      "geometry": {
        "type": "Point",
        "coordinates": [
          8.392064810279948,
          48.99360125604423
        ]
      },
      "properties": {
        "name": "3_4a_ovl.png",
        "rotation": 22.739367649229912,
        "size": 110
      }
    },
    {
      "type": "Feature",
      "geometry": {
        "type": "Point",
        "coordinates": [
          8.414120831739428,
          49.03441309039789
        ]
      },
      "properties": {
        "name": "1_3a_ovl.png",
        "rotation": 10.250613238717413,
        "size": 110
      }
    },
    {
      "type": "Feature",
      "geometry": {
        "type": "Point",
        "coordinates": [
          8.323311392796201,
          48.99846221934342
        ]
      },
      "properties": {
        "name": "2_6b_ovl.png",
        "rotation": -18.54315488317804,
        "size": 110
      }
    },
    {
      "type": "Feature",
      "geometry": {
        "type": "Point",
        "coordinates": [
          8.338412094139198,
          49.01024303174257
        ]
      },
      "properties": {
        "name": "2_5c_ovl.png",
        "rotation": 17.63180648844432,
        "size": 110
      }
    },
    {
      "type": "Feature",
      "geometry": {
        "type": "Point",
        "coordinates": [
          8.376823783933613,
          49.002194843174756
        ]
      },
      "properties": {
        "name": "3_7e_ovl.png",
        "rotation": -1.9700411270209983,
        "size": 110
      }
    },
    {
      "type": "Feature",
      "geometry": {
        "type": "Point",
        "coordinates": [
          8.455271045612717,
          49.00642462039768
        ]
      },
      "properties": {
        "name": "2_8b_ovl.png",
        "rotation": -4.722276225447462,
        "size": 110
      }
    },
    {
      "type": "Feature",
      "geometry": {
        "type": "Point",
        "coordinates": [
          8.35761703521367,
          49.01563371739685
        ]
      },
      "properties": {
        "name": "2_3d_ovl.png",
        "rotation": -12.577084214386037,
        "size": 110
      }
    },
    {
      "type": "Feature",
      "geometry": {
        "type": "Point",
        "coordinates": [
          8.332658125144421,
          49.02848589288768
        ]
      },
      "properties": {
        "name": "2_10d_ovl.png",
        "rotation": 27.498683729297895,
        "size": 110
      }
    },
    {
      "type": "Feature",
      "geometry": {
        "type": "Point",
        "coordinates": [
          8.320826049737134,
          49.03763294303635
        ]
      },
      "properties": {
        "name": "2_11e_ovl.png",
        "rotation": -19.07133587502254,
        "size": 110
      }
    },
    {
      "type": "Feature",
      "geometry": {
        "type": "Point",
        "coordinates": [
          8.445200376757874,
          48.99859756635446
        ]
      },
      "properties": {
        "name": "2_7c_ovl.png",
        "rotation": -24.73827740335343,
        "size": 110
      }
    },
    {
      "type": "Feature",
      "geometry": {
        "type": "Point",
        "coordinates": [
          8.308520690955353,
          49.02914283477582
        ]
      },
      "properties": {
        "name": "3_7g_ovl.png",
        "rotation": 1.2900822975281905,
        "size": 110
      }
    },
    {
      "type": "Feature",
      "geometry": {
        "type": "Point",
        "coordinates": [
          8.433544098258105,
          49.02486105641951
        ]
      },
      "properties": {
        "name": "1_1a_ovl.png",
        "rotation": 22.04881516452228,
        "size": 110
      }
    },
    {
      "type": "Feature",
      "geometry": {
        "type": "Point",
        "coordinates": [
          8.44502667147358,
          48.99242304453794
        ]
      },
      "properties": {
        "name": "2_7d_ovl.png",
        "rotation": -2.0893173975078803,
        "size": 110
      }
    },
    {
      "type": "Feature",
      "geometry": {
        "type": "Point",
        "coordinates": [
          8.378575671726558,
          49.01925678092375
        ]
      },
      "properties": {
        "name": "2_11f_ovl.png",
        "rotation": -10.911765785940869,
        "size": 110
      }
    },
    {
      "type": "Feature",
      "geometry": {
        "type": "Point",
        "coordinates": [
          8.397227792946403,
          49.03117482913671
        ]
      },
      "properties": {
        "name": "2_8c_ovl.png",
        "rotation": -5.9345134769498245,
        "size": 110
      }
    },
    {
      "type": "Feature",
      "geometry": {
        "type": "Point",
        "coordinates": [
          8.320116217660546,
          49.02057265986348
        ]
      },
      "properties": {
        "name": "2_11b_ovl.png",
        "rotation": 22.26011936197839,
        "size": 110
      }
    },
    {
      "type": "Feature",
      "geometry": {
        "type": "Point",
        "coordinates": [
          8.362973503416923,
          49.00486106804012
        ]
      },
      "properties": {
        "name": "3_2a_ovl.png",
        "rotation": -25.34848092709614,
        "size": 110
      }
    },
    {
      "type": "Feature",
      "geometry": {
        "type": "Point",
        "coordinates": [
          8.437599415447073,
          49.02033187150617
        ]
      },
      "properties": {
        "name": "2_2g_ovl.png",
        "rotation": -14.943458991181389,
        "size": 110
      }
    },
    {
      "type": "Feature",
      "geometry": {
        "type": "Point",
        "coordinates": [
          8.465695123353246,
          49.012143031161244
        ]
      },
      "properties": {
        "name": "2_3a_ovl.png",
        "rotation": 0.6042480353933506,
        "size": 110
      }
    },
    {
      "type": "Feature",
      "geometry": {
        "type": "Point",
        "coordinates": [
          8.328855739986484,
          49.024080400605584
        ]
      },
      "properties": {
        "name": "2_1b_ovl.png",
        "rotation": 19.664841765439157,
        "size": 110
      }
    },
    {
      "type": "Feature",
      "geometry": {
        "type": "Point",
        "coordinates": [
          8.44315751156085,
          49.01655397526664
        ]
      },
      "properties": {
        "name": "2_6e_ovl.png",
        "rotation": -12.42697025603887,
        "size": 110
      }
    },
    {
      "type": "Feature",
      "geometry": {
        "type": "Point",
        "coordinates": [
          8.475146278949246,
          49.01725710224627
        ]
      },
      "properties": {
        "name": "2_1e_ovl.png",
        "rotation": -2.261295776625442,
        "size": 110
      }
    },
    {
      "type": "Feature",
      "geometry": {
        "type": "Point",
        "coordinates": [
          8.40072117237431,
          49.00993048817809
        ]
      },
      "properties": {
        "name": "3_4f_ovl.png",
        "rotation": -10.577896471109533,
        "size": 110
      }
    },
    {
      "type": "Feature",
      "geometry": {
        "type": "Point",
        "coordinates": [
          8.312067628059182,
          48.99409935741184
        ]
      },
      "properties": {
        "name": "3_7b_ovl.png",
        "rotation": -26.66920267197916,
        "size": 110
      }
    },
    {
      "type": "Feature",
      "geometry": {
        "type": "Point",
        "coordinates": [
          8.342438965678024,
          48.99219109448427
        ]
      },
      "properties": {
        "name": "2_6h_ovl.png",
        "rotation": 3.8381434906075285,
        "size": 110
      }
    },
    {
      "type": "Feature",
      "geometry": {
        "type": "Point",
        "coordinates": [
          8.363574908240574,
          49.013943605606656
        ]
      },
      "properties": {
        "name": "2_4b_ovl.png",
        "rotation": 25.32428388340128,
        "size": 110
      }
    },
    {
      "type": "Feature",
      "geometry": {
        "type": "Point",
        "coordinates": [
          8.32550146528588,
          48.98965833441996
        ]
      },
      "properties": {
        "name": "2_5d_ovl.png",
        "rotation": -26.465184720845077,
        "size": 110
      }
    },
    {
      "type": "Feature",
      "geometry": {
        "type": "Point",
        "coordinates": [
          8.38069313504446,
          49.02617568681299
        ]
      },
      "properties": {
        "name": "3_3e_ovl.png",
        "rotation": 25.978663221136877,
        "size": 110
      }
    },
    {
      "type": "Feature",
      "geometry": {
        "type": "Point",
        "coordinates": [
          8.348322958505003,
          48.992568417646446
        ]
      },
      "properties": {
        "name": "3_6c_ovl.png",
        "rotation": -22.834211651075123,
        "size": 110
      }
    },
    {
      "type": "Feature",
      "geometry": {
        "type": "Point",
        "coordinates": [
          8.359188786128431,
          48.99674059961687
        ]
      },
      "properties": {
        "name": "3_3a_ovl.png",
        "rotation": -13.098522538147694,
        "size": 110
      }
    },
    {
      "type": "Feature",
      "geometry": {
        "type": "Point",
        "coordinates": [
          8.473268688711906,
          49.0287792581967
        ]
      },
      "properties": {
        "name": "2_7e_ovl.png",
        "rotation": 1.0644345501989,
        "size": 110
      }
    },
    {
      "type": "Feature",
      "geometry": {
        "type": "Point",
        "coordinates": [
          8.458147848164085,
          48.98990844878046
        ]
      },
      "properties": {
        "name": "3_1c_ovl.png",
        "rotation": -17.179546640908,
        "size": 110
      }
    },
    {
      "type": "Feature",
      "geometry": {
        "type": "Point",
        "coordinates": [
          8.450802760509742,
          48.99799603597378
        ]
      },
      "properties": {
        "name": "3_1f_ovl.png",
        "rotation": 4.07328741271521,
        "size": 110
      }
    },
    {
      "type": "Feature",
      "geometry": {
        "type": "Point",
        "coordinates": [
          8.46664817277265,
          49.01546761332316
        ]
      },
      "properties": {
        "name": "2_3g_ovl.png",
        "rotation": 6.089304738870595,
        "size": 110
      }
    },
    {
      "type": "Feature",
      "geometry": {
        "type": "Point",
        "coordinates": [
          8.438573608778526,
          49.028549482440276
        ]
      },
      "properties": {
        "name": "3_6d_ovl.png",
        "rotation": 28.03793779632455,
        "size": 110
      }
    },
    {
      "type": "Feature",
      "geometry": {
        "type": "Point",
        "coordinates": [
          8.36828957796928,
          49.034853038930244
        ]
      },
      "properties": {
        "name": "3_2h_ovl.png",
        "rotation": -12.77784992479576,
        "size": 110
      }
    },
    {
      "type": "Feature",
      "geometry": {
        "type": "Point",
        "coordinates": [
          8.348169115428012,
          49.0099090318186
        ]
      },
      "properties": {
        "name": "2_3e_ovl.png",
        "rotation": 10.312331121952035,
        "size": 110
      }
    },
    {
      "type": "Feature",
      "geometry": {
        "type": "Point",
        "coordinates": [
          8.453359557578045,
          49.03138485831878
        ]
      },
      "properties": {
        "name": "2_7f_ovl.png",
        "rotation": 10.691067565730044,
        "size": 110
      }
    },
    {
      "type": "Feature",
      "geometry": {
        "type": "Point",
        "coordinates": [
          8.30877561205712,
          49.01405140558774
        ]
      },
      "properties": {
        "name": "2_5b_ovl.png",
        "rotation": 27.60688614112889,
        "size": 110
      }
    },
    {
      "type": "Feature",
      "geometry": {
        "type": "Point",
        "coordinates": [
          8.381945994574483,
          48.9997560970146
        ]
      },
      "properties": {
        "name": "2_7g_ovl.png",
        "rotation": 3.306897612467367,
        "size": 110
      }
    },
    {
      "type": "Feature",
      "geometry": {
        "type": "Point",
        "coordinates": [
          8.460561097805169,
          49.01000245065315
        ]
      },
      "properties": {
        "name": "2_10g_ovl.png",
        "rotation": -26.868981882123432,
        "size": 110
      }
    },
    {
      "type": "Feature",
      "geometry": {
        "type": "Point",
        "coordinates": [
          8.475623932883014,
          49.00476298622178
        ]
      },
      "properties": {
        "name": "3_1e_ovl.png",
        "rotation": 20.71739592401029,
        "size": 110
      }
    },
    {
      "type": "Feature",
      "geometry": {
        "type": "Point",
        "coordinates": [
          8.376917264059266,
          48.98929262199591
        ]
      },
      "properties": {
        "name": "3_4c_ovl.png",
        "rotation": -7.9992459083281915,
        "size": 110
      }
    },
    {
      "type": "Feature",
      "geometry": {
        "type": "Point",
        "coordinates": [
          8.372358662129878,
          49.0368848522412
        ]
      },
      "properties": {
        "name": "3_3c_ovl.png",
        "rotation": -4.086441521604328,
        "size": 110
      }
    },
    {
      "type": "Feature",
      "geometry": {
        "type": "Point",
        "coordinates": [
          8.468934058796052,
          48.99327698197646
        ]
      },
      "properties": {
        "name": "2_11h_ovl.png",
        "rotation": 18.85477048407958,
        "size": 110
      }
    },
    {
      "type": "Feature",
      "geometry": {
        "type": "Point",
        "coordinates": [
          8.396178213694823,
          49.00365732545147
        ]
      },
      "properties": {
        "name": "3_2d_ovl.png",
        "rotation": 16.56811751342184,
        "size": 110
      }
    },
    {
      "type": "Feature",
      "geometry": {
        "type": "Point",
        "coordinates": [
          8.420170646987915,
          49.01096581542188
        ]
      },
      "properties": {
        "name": "2_4e_ovl.png",
        "rotation": -26.69368821208937,
        "size": 110
      }
    },
    {
      "type": "Feature",
      "geometry": {
        "type": "Point",
        "coordinates": [
          8.448646997966614,
          49.02786290686172
        ]
      },
      "properties": {
        "name": "1_2a_ovl.png",
        "rotation": -8.860697659180943,
        "size": 110
      }
    },
    {
      "type": "Feature",
      "geometry": {
        "type": "Point",
        "coordinates": [
          8.316713142678454,
          49.00255625958415
        ]
      },
      "properties": {
        "name": "2_10f_ovl.png",
        "rotation": 3.8674179164168265,
        "size": 110
      }
    },
    {
      "type": "Feature",
      "geometry": {
        "type": "Point",
        "coordinates": [
          8.469448158450865,
          49.00062053680571
        ]
      },
      "properties": {
        "name": "3_1a_ovl.png",
        "rotation": 10.488898484975095,
        "size": 110
      }
    },
    {
      "type": "Feature",
      "geometry": {
        "type": "Point",
        "coordinates": [
          8.323795132425625,
          49.01324278625782
        ]
      },
      "properties": {
        "name": "2_2c_ovl.png",
        "rotation": -11.222266542045585,
        "size": 110
      }
    },
    {
      "type": "Feature",
      "geometry": {
        "type": "Point",
        "coordinates": [
          8.483243105593617,
          49.00074402527329
        ]
      },
      "properties": {
        "name": "3_3f_ovl.png",
        "rotation": 5.188722996394581,
        "size": 110
      }
    },
    {
      "type": "Feature",
      "geometry": {
        "type": "Point",
        "coordinates": [
          8.427354423002384,
          49.02647623732875
        ]
      },
      "properties": {
        "name": "2_8g_ovl.png",
        "rotation": 23.214867175251932,
        "size": 110
      }
    },
    {
      "type": "Feature",
      "geometry": {
        "type": "Point",
        "coordinates": [
          8.349898708840215,
          49.02482188988799
        ]
      },
      "properties": {
        "name": "1_2b_ovl.png",
        "rotation": -29.4446431217461,
        "size": 110
      }
    },
    {
      "type": "Feature",
      "geometry": {
        "type": "Point",
        "coordinates": [
          8.373099090523676,
          49.02007177603325
        ]
      },
      "properties": {
        "name": "3_4e_ovl.png",
        "rotation": -5.569571854326792,
        "size": 110
      }
    },
    {
      "type": "Feature",
      "geometry": {
        "type": "Point",
        "coordinates": [
          8.386245652905576,
          49.03272076674003
        ]
      },
      "properties": {
        "name": "2_3b_ovl.png",
        "rotation": 5.462992152923434,
        "size": 110
      }
    },
    {
      "type": "Feature",
      "geometry": {
        "type": "Point",
        "coordinates": [
          8.32363178247712,
          49.030125493714955
        ]
      },
      "properties": {
        "name": "2_11d_ovl.png",
        "rotation": -13.393877299447986,
        "size": 110
      }
    },
    {
      "type": "Feature",
      "geometry": {
        "type": "Point",
        "coordinates": [
          8.36472009648551,
          48.99799348295682
        ]
      },
      "properties": {
        "name": "2_6d_ovl.png",
        "rotation": -0.06739027184353574,
        "size": 110
      }
    },
    {
      "type": "Feature",
      "geometry": {
        "type": "Point",
        "coordinates": [
          8.31480506548007,
          49.018020739981175
        ]
      },
      "properties": {
        "name": "2_8d_ovl.png",
        "rotation": -3.6187824693039587,
        "size": 110
      }
    },
    {
      "type": "Feature",
      "geometry": {
        "type": "Point",
        "coordinates": [
          8.428322189703088,
          48.989577408254235
        ]
      },
      "properties": {
        "name": "2_5g_ovl.png",
        "rotation": 29.93289654697528,
        "size": 110
      }
    },
    {
      "type": "Feature",
      "geometry": {
        "type": "Point",
        "coordinates": [
          8.433434444583682,
          48.992784792598925
        ]
      },
      "properties": {
        "name": "3_5a_ovl.png",
        "rotation": -6.133203040687214,
        "size": 110
      }
    },
    {
      "type": "Feature",
      "geometry": {
        "type": "Point",
        "coordinates": [
          8.374255612693666,
          49.00711248528929
        ]
      },
      "properties": {
        "name": "2_5e_ovl.png",
        "rotation": -20.62817995133067,
        "size": 110
      }
    },
    {
      "type": "Feature",
      "geometry": {
        "type": "Point",
        "coordinates": [
          8.430706192393213,
          49.00790952538694
        ]
      },
      "properties": {
        "name": "2_2b_ovl.png",
        "rotation": -23.31064307247999,
        "size": 110
      }
    },
    {
      "type": "Feature",
      "geometry": {
        "type": "Point",
        "coordinates": [
          8.474522306987156,
          48.99556680418248
        ]
      },
      "properties": {
        "name": "3_2b_ovl.png",
        "rotation": -19.691053799275558,
        "size": 110
      }
    },
    {
      "type": "Feature",
      "geometry": {
        "type": "Point",
        "coordinates": [
          8.368336427892249,
          48.99437581909478
        ]
      },
      "properties": {
        "name": "3_1g_ovl.png",
        "rotation": -1.7717389841492235,
        "size": 110
      }
    },
    {
      "type": "Feature",
      "geometry": {
        "type": "Point",
        "coordinates": [
          8.472376645413492,
          49.03220743284668
        ]
      },
      "properties": {
        "name": "3_3b_ovl.png",
        "rotation": 27.285894896887953,
        "size": 110
      }
    },
    {
      "type": "Feature",
      "geometry": {
        "type": "Point",
        "coordinates": [
          8.353518212941038,
          49.02144258162742
        ]
      },
      "properties": {
        "name": "2_5h_ovl.png",
        "rotation": -9.132300529399767,
        "size": 110
      }
    },
    {
      "type": "Feature",
      "geometry": {
        "type": "Point",
        "coordinates": [
          8.453218270981836,
          49.016253033036534
        ]
      },
      "properties": {
        "name": "3_7a_ovl.png",
        "rotation": -18.259750815013085,
        "size": 110
      }
    },
    {
      "type": "Feature",
      "geometry": {
        "type": "Point",
        "coordinates": [
          8.401954363742204,
          49.00073397235071
        ]
      },
      "properties": {
        "name": "3_1h_ovl.png",
        "rotation": 29.912609157378768,
        "size": 110
      }
    },
    {
      "type": "Feature",
      "geometry": {
        "type": "Point",
        "coordinates": [
          8.324133241052458,
          49.03319184192602
        ]
      },
      "properties": {
        "name": "3_4d_ovl.png",
        "rotation": -10.115691710694254,
        "size": 110
      }
    },
    {
      "type": "Feature",
      "geometry": {
        "type": "Point",
        "coordinates": [
          8.45242987105723,
          49.035669793183914
        ]
      },
      "properties": {
        "name": "3_3g_ovl.png",
        "rotation": -8.159941193299932,
        "size": 110
      }
    },
    {
      "type": "Feature",
      "geometry": {
        "type": "Point",
        "coordinates": [
          8.367973380862999,
          49.006051004635644
        ]
      },
      "properties": {
        "name": "2_10e_ovl.png",
        "rotation": 12.470767715126264,
        "size": 110
      }
    },
    {
      "type": "Feature",
      "geometry": {
        "type": "Point",
        "coordinates": [
          8.436948659767857,
          49.033186616977545
        ]
      },
      "properties": {
        "name": "3_5f_ovl.png",
        "rotation": -14.149371573612939,
        "size": 110
      }
    },
    {
      "type": "Feature",
      "geometry": {
        "type": "Point",
        "coordinates": [
          8.374610143971404,
          48.992891370495585
        ]
      },
      "properties": {
        "name": "2_6c_ovl.png",
        "rotation": 2.639533092332144,
        "size": 110
      }
    },
    {
      "type": "Feature",
      "geometry": {
        "type": "Point",
        "coordinates": [
          8.421987956063086,
          48.992923030236895
        ]
      },
      "properties": {
        "name": "3_2g_ovl.png",
        "rotation": -6.8294102819334945,
        "size": 110
      }
    },
    {
      "type": "Feature",
      "geometry": {
        "type": "Point",
        "coordinates": [
          8.336349007446623,
          49.03325812972994
        ]
      },
      "properties": {
        "name": "2_3h_ovl.png",
        "rotation": -1.0437609586674839,
        "size": 110
      }
    },
    {
      "type": "Feature",
      "geometry": {
        "type": "Point",
        "coordinates": [
          8.415641266915374,
          48.989211368799666
        ]
      },
      "properties": {
        "name": "3_6b_ovl.png",
        "rotation": -18.58829926740235,
        "size": 110
      }
    },
    {
      "type": "Feature",
      "geometry": {
        "type": "Point",
        "coordinates": [
          8.325625099343757,
          49.021616802197336
        ]
      },
      "properties": {
        "name": "2_1a_ovl.png",
        "rotation": -26.839036192701556,
        "size": 110
      }
    },
    {
      "type": "Feature",
      "geometry": {
        "type": "Point",
        "coordinates": [
          8.308438594067415,
          48.99672013348538
        ]
      },
      "properties": {
        "name": "2_8e_ovl.png",
        "rotation": 17.180868886136345,
        "size": 110
      }
    },
    {
      "type": "Feature",
      "geometry": {
        "type": "Point",
        "coordinates": [
          8.405356229172469,
          49.02302302980709
        ]
      },
      "properties": {
        "name": "2_5f_ovl.png",
        "rotation": 7.434794474093984,
        "size": 110
      }
    },
    {
      "type": "Feature",
      "geometry": {
        "type": "Point",
        "coordinates": [
          8.31757318572221,
          48.994640508363375
        ]
      },
      "properties": {
        "name": "2_10a_ovl.png",
        "rotation": 2.8879031808189453,
        "size": 110
      }
    },
    {
      "type": "Feature",
      "geometry": {
        "type": "Point",
        "coordinates": [
          8.434492801863648,
          49.000505991721305
        ]
      },
      "properties": {
        "name": "3_7d_ovl.png",
        "rotation": -2.7957013937615542,
        "size": 110
      }
    },
    {
      "type": "Feature",
      "geometry": {
        "type": "Point",
        "coordinates": [
          8.365543614625745,
          49.02572698977588
        ]
      },
      "properties": {
        "name": "3_2e_ovl.png",
        "rotation": -13.381488748367936,
        "size": 110
      }
    },
    {
      "type": "Feature",
      "geometry": {
        "type": "Point",
        "coordinates": [
          8.42334299214317,
          49.03081494813692
        ]
      },
      "properties": {
        "name": "3_5g_ovl.png",
        "rotation": 8.205116246589583,
        "size": 110
      }
    },
    {
      "type": "Feature",
      "geometry": {
        "type": "Point",
        "coordinates": [
          8.42476554431044,
          49.01690221630044
        ]
      },
      "properties": {
        "name": "2_10h_ovl.png",
        "rotation": 0.17684814975281782,
        "size": 110
      }
    },
    {
      "type": "Feature",
      "geometry": {
        "type": "Point",
        "coordinates": [
          8.32423520854108,
          49.006967553664474
        ]
      },
      "properties": {
        "name": "2_9a_ovl.png",
        "rotation": 16.70142463801207,
        "size": 110
      }
    },
    {
      "type": "Feature",
      "geometry": {
        "type": "Point",
        "coordinates": [
          8.354812547541055,
          49.00083982797354
        ]
      },
      "properties": {
        "name": "2_4c_ovl.png",
        "rotation": -22.344507593943646,
        "size": 110
      }
    },
    {
      "type": "Feature",
      "geometry": {
        "type": "Point",
        "coordinates": [
          8.480989856041186,
          49.008224631824184
        ]
      },
      "properties": {
        "name": "2_8a_ovl.png",
        "rotation": 11.240011121976345,
        "size": 110
      }
    },
    {
      "type": "Feature",
      "geometry": {
        "type": "Point",
        "coordinates": [
          8.466556822150888,
          49.02001396845553
        ]
      },
      "properties": {
        "name": "2_7b_ovl.png",
        "rotation": 12.841386833082609,
        "size": 110
      }
    },
    {
      "type": "Feature",
      "geometry": {
        "type": "Point",
        "coordinates": [
          8.449223196223969,
          49.01364973516436
        ]
      },
      "properties": {
        "name": "2_8f_ovl.png",
        "rotation": -12.959920771095927,
        "size": 110
      }
    },
    {
      "type": "Feature",
      "geometry": {
        "type": "Point",
        "coordinates": [
          8.410377966508937,
          49.01314855656847
        ]
      },
      "properties": {
        "name": "2_1f_ovl.png",
        "rotation": 28.489064490096546,
        "size": 110
      }
    },
    {
      "type": "Feature",
      "geometry": {
        "type": "Point",
        "coordinates": [
          8.342341250345987,
          49.02453640748976
        ]
      },
      "properties": {
        "name": "3_4h_ovl.png",
        "rotation": 28.68437369740151,
        "size": 110
      }
    },
    {
      "type": "Feature",
      "geometry": {
        "type": "Point",
        "coordinates": [
          8.357588130061792,
          48.98996015598395
        ]
      },
      "properties": {
        "name": "2_2h_ovl.png",
        "rotation": -1.5276670041300946,
        "size": 110
      }
    },
    {
      "type": "Feature",
      "geometry": {
        "type": "Point",
        "coordinates": [
          8.422601302917842,
          48.997527545859775
        ]
      },
      "properties": {
        "name": "2_4d_ovl.png",
        "rotation": -26.176466394980306,
        "size": 110
      }
    },
    {
      "type": "Feature",
      "geometry": {
        "type": "Point",
        "coordinates": [
          8.475186984463242,
          49.03600063029536
        ]
      },
      "properties": {
        "name": "3_2f_ovl.png",
        "rotation": -22.95305710060785,
        "size": 110
      }
    },
    {
      "type": "Feature",
      "geometry": {
        "type": "Point",
        "coordinates": [
          8.470624439711917,
          49.0070885418528
        ]
      },
      "properties": {
        "name": "3_5e_ovl.png",
        "rotation": 25.359934433588833,
        "size": 110
      }
    },
    {
      "type": "Feature",
      "geometry": {
        "type": "Point",
        "coordinates": [
          8.310291662836082,
          49.03473225549346
        ]
      },
      "properties": {
        "name": "2_10b_ovl.png",
        "rotation": 2.6210405013988805,
        "size": 110
      }
    },
    {
      "type": "Feature",
      "geometry": {
        "type": "Point",
        "coordinates": [
          8.383866467502427,
          49.036630916732
        ]
      },
      "properties": {
        "name": "2_2f_ovl.png",
        "rotation": -6.87741359277625,
        "size": 110
      }
    },
    {
      "type": "Feature",
      "geometry": {
        "type": "Point",
        "coordinates": [
          8.479315846279153,
          49.03100245775582
        ]
      },
      "properties": {
        "name": "3_5h_ovl.png",
        "rotation": 1.95623294480216,
        "size": 110
      }
    },
    {
      "type": "Feature",
      "geometry": {
        "type": "Point",
        "coordinates": [
          8.360026174336635,
          49.00782841988694
        ]
      },
      "properties": {
        "name": "2_3f_ovl.png",
        "rotation": 23.988126578219422,
        "size": 110
      }
    },
    {
      "type": "Feature",
      "geometry": {
        "type": "Point",
        "coordinates": [
          8.459264028558508,
          49.00445191379369
        ]
      },
      "properties": {
        "name": "2_11g_ovl.png",
        "rotation": -1.7324893994012136,
        "size": 110
      }
    },
    {
      "type": "Feature",
      "geometry": {
        "type": "Point",
        "coordinates": [
          8.337750887905871,
          49.01633229779243
        ]
      },
      "properties": {
        "name": "2_6f_ovl.png",
        "rotation": 0.8816481050691145,
        "size": 110
      }
    },
    {
      "type": "Feature",
      "geometry": {
        "type": "Point",
        "coordinates": [
          8.474419766456643,
          49.02322780209188
        ]
      },
      "properties": {
        "name": "2_2e_ovl.png",
        "rotation": -10.014582742180021,
        "size": 110
      }
    },
    {
      "type": "Feature",
      "geometry": {
        "type": "Point",
        "coordinates": [
          8.409158151142453,
          48.993568684094626
        ]
      },
      "properties": {
        "name": "3_4g_ovl.png",
        "rotation": -3.277925310573309,
        "size": 110
      }
    },
    {
      "type": "Feature",
      "geometry": {
        "type": "Point",
        "coordinates": [
          8.41717045243299,
          49.037789789230295
        ]
      },
      "properties": {
        "name": "3_6a_ovl.png",
        "rotation": 1.1129618466601485,
        "size": 110
      }
    },
    {
      "type": "Feature",
      "geometry": {
        "type": "Point",
        "coordinates": [
          8.33250834529547,
          49.01442693295966
        ]
      },
      "properties": {
        "name": "1_1b_ovl.png",
        "rotation": 25.67381268729681,
        "size": 110
      }
    },
    {
      "type": "Feature",
      "geometry": {
        "type": "Point",
        "coordinates": [
          8.463941056105059,
          49.02544356005299
        ]
      },
      "properties": {
        "name": "2_2a_ovl.png",
        "rotation": 1.109943925614317,
        "size": 110
      }
    }
  ]
}