{
  "type": "FeatureCollection",
  "features": [
    {
      "type": "Feature",
      "geometry": {
        "type": "Point",
        "coordinates": [
          8.420960431710386,
          49.02912771867797
        ]
      },
      "properties": {
        "name": "3_3d_ovl.png",
        "rotation": 25.07348061590782,
        "size": 96
      }
    },
    {
      "type": "Feature",
      "geometry": {
        "type": "Point",
        "coordinates": [
          8.42539500516881,
          49.03428123174879
        ]
      },
      "properties": {
        "name": "3_7c_ovl.png",
        "rotation": 29.2718439876789,
        "size": 96
      }
    },
    {
      "type": "Feature",
      "geometry": {
        "type": "Point",
        "coordinates": [
          8.398060424204342,
          49.013706376510086
        ]
      },
      "properties": {
        "name": "2_4f_ovl.png",
        "rotation": -2.9707337846294912,
        "size": 96
      }
    },
    {
      "type": "Feature",
      "geometry": {
        "type": "Point",
        "coordinates": [
          8.420110112931606,
          49.021124663299645
        ]
      },
      "properties": {
        "name": "2_11c_ovl.png",
        "rotation": 29.603036256225167,
        "size": 96
      }
    },
    {
      "type": "Feature",
      "geometry": {
        "type": "Point",
        "coordinates": [
          8.404958625955715,
          49.0240284926895
        ]
      },
      "properties": {
        "name": "2_4a_ovl.png",
        "rotation": 7.658811951412375,
        "size": 96
      }
    },
    {
      "type": "Feature",
      "geometry": {
        "type": "Point",
        "coordinates": [
          8.394545388191405,
          49.01576165896176
        ]
      },
      "properties": {
        "name": "2_5a_ovl.png",
        "rotation": 21.046894792240785,
        "size": 96
      }
    },
    {
      "type": "Feature",
      "geometry": {
        "type": "Point",
        "coordinates": [
          8.361112116169947,
          48.9905107755622
        ]
      },
      "properties": {
        "name": "2_10c_ovl.png",
        "rotation": 27.63779771981703,
        "size": 96
      }
    },
    {
      "type": "Feature",
      "geometry": {
        "type": "Point",
        "coordinates": [
          8.37274003248172,
          48.997809562568264
        ]
      },
      "properties": {
        "name": "2_6a_ovl.png",
        "rotation": -25.338774914048084,
        "size": 96
      }
    },
    {
      "type": "Feature",
      "geometry": {
        "type": "Point",
        "coordinates": [
          8.400311301224438,
          49.0204983075942
        ]
      },
      "properties": {
        "name": "3_5c_ovl.png",
        "rotation": 12.83012086569017,
        "size": 96
      }
    },
    {
      "type": "Feature",
      "geometry": {
        "type": "Point",
        "coordinates": [
          8.414561909802307,
          49.03741008091846
        ]
      },
      "properties": {
        "name": "2_7a_ovl.png",
        "rotation": 25.53839165093069,
        "size": 96
      }
    },
    {
      "type": "Feature",
      "geometry": {
        "type": "Point",
        "coordinates": [
          8.419871216016928,
          49.00217853789325
        ]
      },
      "properties": {
        "name": "2_4g_ovl.png",
        "rotation": -6.181889187606711,
        "size": 96
      }
    },
    {
      "type": "Feature",
      "geometry": {
        "type": "Point",
        "coordinates": [
          8.392499378444048,
          48.992565051198284
        ]
      },
      "properties": {
        "name": "2_11a_ovl.png",
        "rotation": -7.095298437598132,
        "size": 96
      }
    },
    {
      "type": "Feature",
      "geometry": {
        "type": "Point",
        "coordinates": [
          8.393813246192499,
          49.02788153492736
        ]
      },
      "properties": {
        "name": "2_7h_ovl.png",
        "rotation": 18.47730700918227,
        "size": 96
      }
    },
    {
      "type": "Feature",
      "geometry": {
        "type": "Point",
        "coordinates": [
          8.374111550170731,
          49.01434193285896
        ]
      },
      "properties": {
        "name": "2_9e_ovl.png",
        "rotation": -26.701821235790682,
        "size": 96
      }
    },
    {
      "type": "Feature",
      "geometry": {
        "type": "Point",
        "coordinates": [
          8.423005854978348,
          49.02342390784505
        ]
      },
      "properties": {
        "name": "2_1c_ovl.png",
        "rotation": -10.217995442455045,
        "size": 96
      }
    },
    {
      "type": "Feature",
      "geometry": {
        "type": "Point",
        "coordinates": [
          8.370789203382786,
          49.001149638207735
        ]
      },
      "properties": {
        "name": "2_9b_ovl.png",
        "rotation": -28.573011220762304,
        "size": 96
      }
    },
    {
      "type": "Feature",
      "geometry": {
        "type": "Point",
        "coordinates": [
          8.409498563699053,
          49.002633369103215
        ]
      },
      "properties": {
        "name": "3_5b_ovl.png",
        "rotation": 7.852627401782684,
        "size": 96
      }
    },
    {
      "type": "Feature",
      "geometry": {
        "type": "Point",
        "coordinates": [
          8.372077426560303,
          49.01032501080649
        ]
      },
      "properties": {
        "name": "3_1d_ovl.png",
        "rotation": 25.729208706911663,
        "size": 96
      }
    },
    {
      "type": "Feature",
      "geometry": {
        "type": "Point",
        "coordinates": [
          8.397429857604575,
          49.031445261681995
        ]
      },
      "properties": {
        "name": "2_3c_ovl.png",
        "rotation": -0.6952906143296325,
        "size": 96
      }
    },
    {
      "type": "Feature",
      "geometry": {
        "type": "Point",
        "coordinates": [
          8.411345482889484,
          49.010639879219084
        ]
      },
      "properties": {
        "name": "3_2c_ovl.png",
        "rotation": -24.82285878998759,
        "size": 96
      }
    },
    {
      "type": "Feature",
      "geometry": {
        "type": "Point",
        "coordinates": [
          8.431016520409287,
          49.017402230498
        ]
      },
      "properties": {
        "name": "2_6g_ovl.png",
        "rotation": -29.019689968756722,
        "size": 96
      }
    },
    {
      "type": "Feature",
      "geometry": {
        "type": "Point",
        "coordinates": [
          8.366512316659716,
          48.98955498501924
        ]
      },
      "properties": {
        "name": "3_5d_ovl.png",
        "rotation": 21.051051986139626,
        "size": 96
      }
    },
    {
      "type": "Feature",
      "geometry": {
        "type": "Point",
        "coordinates": [
          8.423689368763018,
          48.98980735121321
        ]
      },
      "properties": {
        "name": "3_3h_ovl.png",
        "rotation": -28.590954436089582,
        "size": 96
      }
    },
    {
      "type": "Feature",
      "geometry": {
        "type": "Point",
        "coordinates": [
          8.41525191814472,
          49.02879627842366
        ]
      },
      "properties": {
        "name": "3_4b_ovl.png",
        "rotation": -11.045857437506779,
        "size": 96
      }
    },
    {
      "type": "Feature",
      "geometry": {
        "type": "Point",
        "coordinates": [
          8.40077812136445,
          48.997882019854266
        ]
      },
      "properties": {
        "name": "2_1d_ovl.png",
        "rotation": 6.674854397845522,
        "size": 96
      }
    },
    {
      "type": "Feature",
      "geometry": {
        "type": "Point",
        "coordinates": [
          8.433272135710624,
          49.02737965507161
        ]
      },
      "properties": {
        "name": "2_2d_ovl.png",
        "rotation": -18.572814600657235,
        "size": 96
      }
    },
    {
      "type": "Feature",
      "geometry": {
        "type": "Point",
        "coordinates": [
          8.424729596905488,
          49.010082263713684
        ]
      },
      "properties": {
        "name": "3_4a_ovl.png",
        "rotation": -7.011079604597594,
        "size": 96
      }
    },
    {
      "type": "Feature",
      "geometry": {
        "type": "Point",
        "coordinates": [
          8.404711580168685,
          49.03471267770694
        ]
      },
      "properties": {
        "name": "1_3a_ovl.png",
        "rotation": 8.40862908660528,
        "size": 96
      }
    },
    {
      "type": "Feature",
      "geometry": {
        "type": "Point",
        "coordinates": [
          8.365568288740256,
          48.99843813321532
        ]
      },
      "properties": {
        "name": "2_6b_ovl.png",
        "rotation": 5.825274937274266,
        "size": 96
      }
    },
    {
      "type": "Feature",
      "geometry": {
        "type": "Point",
        "coordinates": [
          8.416466005043205,
          49.026350725593595
        ]
      },
      "properties": {
        "name": "2_5c_ovl.png",
        "rotation": -2.755688316136105,
        "size": 96
      }
    },
    {
      "type": "Feature",
      "geometry": {
        "type": "Point",
        "coordinates": [
          8.388634735859629,
          49.00220436266315
        ]
      },
      "properties": {
        "name": "3_7e_ovl.png",
        "rotation": 20.019651221743494,
        "size": 96
      }
    },
    {
      "type": "Feature",
      "geometry": {
        "type": "Point",
        "coordinates": [
          8.383361327557253,
          49.03339585428854
        ]
      },
      "properties": {
        "name": "2_8b_ovl.png",
        "rotation": -24.477974880437785,
        "size": 96
      }
    },
    {
      "type": "Feature",
      "geometry": {
        "type": "Point",
        "coordinates": [
          8.388675030347114,
          48.98918598000745
        ]
      },
      "properties": {
        "name": "2_3d_ovl.png",
        "rotation": 7.257058938358071,
        "size": 96
      }
    },
    {
      "type": "Feature",
      "geometry": {
        "type": "Point",
        "coordinates": [
          8.369597185653038,
          49.02873211636063
        ]
      },
      "properties": {
        "name": "2_10d_ovl.png",
        "rotation": 28.260884499213454,
        "size": 96
      }
    },
    {
      "type": "Feature",
      "geometry": {
        "type": "Point",
        "coordinates": [
          8.364496984823033,
          49.03796151937237
        ]
      },
      "properties": {
        "name": "2_11e_ovl.png",
        "rotation": 9.263993078804809,
        "size": 96
      }
    },
    {
      "type": "Feature",
      "geometry": {
        "type": "Point",
        "coordinates": [
          8.428338750931754,
          48.99320621203926
        ]
      },
      "properties": {
        "name": "2_7c_ovl.png",
        "rotation": 10.091695647095648,
        "size": 96
      }
    },
    {
      "type": "Feature",
      "geometry": {
        "type": "Point",
        "coordinates": [
          8.359192775805424,
          49.029394972838105
        ]
      },
      "properties": {
        "name": "3_7g_ovl.png",
        "rotation": 16.540665087903683,
        "size": 96
      }
    },
    {
      "type": "Feature",
      "geometry": {
        "type": "Point",
        "coordinates": [
          8.407319345221696,
          49.011054301862984
        ]
      },
      "properties": {
        "name": "1_1a_ovl.png",
        "rotation": 2.1831066846580924,
        "size": 96
      }
    },
    {
      "type": "Feature",
      "geometry": {
        "type": "Point",
        "coordinates": [
          8.418033502489013,
          48.99234458641802
        ]
      },
      "properties": {
        "name": "2_7d_ovl.png",
        "rotation": 25.055518607306425,
        "size": 96
      }
    },
    {
      "type": "Feature",
      "geometry": {
        "type": "Point",
        "coordinates": [
          8.365776804083048,
          49.01335177275789
        ]
      },
      "properties": {
        "name": "2_11f_ovl.png",
        "rotation": -28.73874470549399,
        "size": 96
      }
    },
    {
      "type": "Feature",
      "geometry": {
        "type": "Point",
        "coordinates": [
          8.392696020317079,
          49.0330051176946
        ]
      },
      "properties": {
        "name": "2_8c_ovl.png",
        "rotation": 17.732096766696216,
        "size": 96
      }
    },
    {
      "type": "Feature",
      "geometry": {
        "type": "Point",
        "coordinates": [
          8.413036688052802,
          48.99270959137474
        ]
      },
      "properties": {
        "name": "2_11b_ovl.png",
        "rotation": 27.77227296992369,
        "size": 96
      }
    },
    {
      "type": "Feature",
      "geometry": {
        "type": "Point",
        "coordinates": [
          8.42122464211258,
          49.035980694858885
        ]
      },
      "properties": {
        "name": "3_2a_ovl.png",
        "rotation": -29.97011795752758,
        "size": 96
      }
    },
    {
      "type": "Feature",
      "geometry": {
        "type": "Point",
        "coordinates": [
          8.414831993366807,
          49.02050468256796
        ]
      },
      "properties": {
        "name": "2_2g_ovl.png",
        "rotation": 12.57389074767142,
        "size": 96
      }
    },
    {
      "type": "Feature",
      "geometry": {
        "type": "Point",
        "coordinates": [
          8.42694261199035,
          49.012242116329254
        ]
      },
      "properties": {
        "name": "2_3a_ovl.png",
        "rotation": 2.403876239988442,
        "size": 96
      }
    },
    {
      "type": "Feature",
      "geometry": {
        "type": "Point",
        "coordinates": [
          8.367958172439298,
          49.02428696048242
        ]
      },
      "properties": {
        "name": "2_1b_ovl.png",
        "rotation": -26.638779056025374,
        "size": 96
      }
    },
    {
      "type": "Feature",
      "geometry": {
        "type": "Point",
        "coordinates": [
          8.417227803521573,
          49.0166927731147
        ]
      },
      "properties": {
        "name": "2_6e_ovl.png",
        "rotation": -15.551992963725564,
        "size": 96
      }
    },
    {
      "type": "Feature",
      "geometry": {
        "type": "Point",
        "coordinates": [
          8.375949740747883,
          49.03677895231063
        ]
      },
      "properties": {
        "name": "2_1e_ovl.png",
        "rotation": -20.4203201695951,
        "size": 96
      }
    },
    {
      "type": "Feature",
      "geometry": {
        "type": "Point",
        "coordinates": [
          8.398935674297288,
          49.010009653344966
        ]
      },
      "properties": {
        "name": "3_4f_ovl.png",
        "rotation": -16.1312054218297,
        "size": 96
      }
    },
    {
      "type": "Feature",
      "geometry": {
        "type": "Point",
        "coordinates": [
          8.360721678465206,
          48.99403599149787
        ]
      },
      "properties": {
        "name": "3_7b_ovl.png",
        "rotation": 27.05230720312686,
        "size": 96
      }
    },
    {
      "type": "Feature",
      "geometry": {
        "type": "Point",
        "coordinates": [
          8.399317441014967,
          49.03826524468699
        ]
      },
      "properties": {
        "name": "2_6h_ovl.png",
        "rotation": -8.900944781478085,
        "size": 96
      }
    },
    {
      "type": "Feature",
      "geometry": {
        "type": "Point",
        "coordinates": [
          8.38292382509543,
          49.0140589017343
        ]
      },
      "properties": {
        "name": "2_4b_ovl.png",
        "rotation": -5.008611351216459,
        "size": 96
      }
    },
    {
      "type": "Feature",
      "geometry": {
        "type": "Point",
        "coordinates": [
          8.364439040773865,
          49.01632183222169
        ]
      },
      "properties": {
        "name": "2_5d_ovl.png",
        "rotation": 12.281664977499993,
        "size": 96
      }
    },
    {
      "type": "Feature",
      "geometry": {
        "type": "Point",
        "coordinates": [
          8.390302614660921,
          49.02640111100295
        ]
      },
      "properties": {
        "name": "3_3e_ovl.png",
        "rotation": 11.541475400935084,
        "size": 96
      }
    },
    {
      "type": "Feature",
      "geometry": {
        "type": "Point",
        "coordinates": [
          8.376349491851014,
          48.99249126835194
        ]
      },
      "properties": {
        "name": "3_6c_ovl.png",
        "rotation": 11.049077333892036,
        "size": 96
      }
    },
    {
      "type": "Feature",
      "geometry": {
        "type": "Point",
        "coordinates": [
          8.43325045951708,
          49.01478485864455
        ]
      },
      "properties": {
        "name": "3_3a_ovl.png",
        "rotation": 5.66711985887445,
        "size": 96
      }
    },
    {
      "type": "Feature",
      "geometry": {
        "type": "Point",
        "coordinates": [
          8.430207187561308,
          49.02902812290072
        ]
      },
      "properties": {
        "name": "2_7e_ovl.png",
        "rotation": 2.8688161423899174,
        "size": 96
      }
    },
    {
      "type": "Feature",
      "geometry": {
        "type": "Point",
        "coordinates": [
          8.3936957627587,
          49.02000498884347
        ]
      },
      "properties": {
        "name": "3_1c_ovl.png",
        "rotation": 19.333603721844625,
        "size": 96
      }
    },
    {
      "type": "Feature",
      "geometry": {
        "type": "Point",
        "coordinates": [
          8.420523278211562,
          48.99796775269637
        ]
      },
      "properties": {
        "name": "3_1f_ovl.png",
        "rotation": 27.858317855550354,
        "size": 96
      }
    },
    {
      "type": "Feature",
      "geometry": {
        "type": "Point",
        "coordinates": [
          8.42735342271227,
          49.0155966304206
        ]
      },
      "properties": {
        "name": "2_3g_ovl.png",
        "rotation": 6.097369396260859,
        "size": 96
      }
    },
    {
      "type": "Feature",
      "geometry": {
        "type": "Point",
        "coordinates": [
          8.394399420344078,
          49.006302260369566
        ]
      },
      "properties": {
        "name": "3_6d_ovl.png",
        "rotation": -9.19806879776721,
        "size": 96
      }
    },
    {
      "type": "Feature",
      "geometry": {
        "type": "Point",
        "coordinates": [
          8.412415774746592,
          49.0154344261814
        ]
      },
      "properties": {
        "name": "3_2h_ovl.png",
        "rotation": 8.924981676756644,
        "size": 96
      }
    },
    {
      "type": "Feature",
      "geometry": {
        "type": "Point",
        "coordinates": [
          8.376283177991278,
          49.00998800380925
        ]
      },
      "properties": {
        "name": "2_3e_ovl.png",
        "rotation": 1.1509687691971422,
        "size": 96
      }
    },
    {
      "type": "Feature",
      "geometry": {
        "type": "Point",
        "coordinates": [
          8.421625382287225,
          49.03165718180204
        ]
      },
      "properties": {
        "name": "2_7f_ovl.png",
        "rotation": 2.3834075169017908,
        "size": 96
      }
    },
    {
      "type": "Feature",
      "geometry": {
        "type": "Point",
        "coordinates": [
          8.359302659217258,
          49.01416767226184
        ]
      },
      "properties": {
        "name": "2_5b_ovl.png",
        "rotation": -17.199139716739708,
        "size": 96
      }
    },
    {
      "type": "Feature",
      "geometry": {
        "type": "Point",
        "coordinates": [
          8.390842658143992,
          48.99974365994591
        ]
      },
      "properties": {
        "name": "2_7g_ovl.png",
        "rotation": -13.640413086576615,
        "size": 96
      }
    },
    {
      "type": "Feature",
      "geometry": {
        "type": "Point",
        "coordinates": [
          8.382552809555376,
          49.029311698369575
        ]
      },
      "properties": {
        "name": "2_10g_ovl.png",
        "rotation": -9.231145731190498,
        "size": 96
      }
    },
    {
      "type": "Feature",
      "geometry": {
        "type": "Point",
        "coordinates": [
          8.431222412520823,
          49.00479562725529
        ]
      },
      "properties": {
        "name": "3_1e_ovl.png",
        "rotation": 8.456537675916188,
        "size": 96
      }
    },
    {
      "type": "Feature",
      "geometry": {
        "type": "Point",
        "coordinates": [
          8.387696207938653,
          49.02914970334721
        ]
      },
      "properties": {
        "name": "3_4c_ovl.png",
        "rotation": -16.494828004180935,
        "size": 96
      }
    },
    {
      "type": "Feature",
      "geometry": {
        "type": "Point",
        "coordinates": [
          8.38671005087026,
          49.03720669335463
        ]
      },
      "properties": {
        "name": "3_3c_ovl.png",
        "rotation": 17.756335956671926,
        "size": 96
      }
    },
    {
      "type": "Feature",
      "geometry": {
        "type": "Point",
        "coordinates": [
          8.434631565307926,
          48.996161091613544
        ]
      },
      "properties": {
        "name": "2_11h_ovl.png",
        "rotation": -19.209030287897214,
        "size": 96
      }
    },
    {
      "type": "Feature",
      "geometry": {
        "type": "Point",
        "coordinates": [
          8.396977437823107,
          49.003680011982865
        ]
      },
      "properties": {
        "name": "3_2d_ovl.png",
        "rotation": -6.692857295193569,
        "size": 96
      }
    },
    {
      "type": "Feature",
      "geometry": {
        "type": "Point",
        "coordinates": [
          8.404421946850025,
          49.00767843213062
        ]
      },
      "properties": {
        "name": "2_4e_ovl.png",
        "rotation": -16.14015436019025,
        "size": 96
      }
    },
    {
      "type": "Feature",
      "geometry": {
        "type": "Point",
        "coordinates": [
          8.42123243698989,
          49.03860270226326
        ]
      },
      "properties": {
        "name": "1_2a_ovl.png",
        "rotation": -10.169884566736538,
        "size": 96
      }
    },
    {
      "type": "Feature",
      "geometry": {
        "type": "Point",
        "coordinates": [
          8.362724121544838,
          49.002569032982336
        ]
      },
      "properties": {
        "name": "2_10f_ovl.png",
        "rotation": 24.585904557130526,
        "size": 96
      }
    },
    {
      "type": "Feature",
      "geometry": {
        "type": "Point",
        "coordinates": [
          8.428560352924297,
          49.000615882474705
        ]
      },
      "properties": {
        "name": "3_1a_ovl.png",
        "rotation": 24.794118116306606,
        "size": 96
      }
    },
    {
      "type": "Feature",
      "geometry": {
        "type": "Point",
        "coordinates": [
          8.424056059310862,
          49.001004978241326
        ]
      },
      "properties": {
        "name": "2_2c_ovl.png",
        "rotation": 13.963398192791537,
        "size": 96
      }
    },
    {
      "type": "Feature",
      "geometry": {
        "type": "Point",
        "coordinates": [
          8.434506647081959,
          49.00074048273556
        ]
      },
      "properties": {
        "name": "3_3f_ovl.png",
        "rotation": 29.84976665414679,
        "size": 96
      }
    },
    {
      "type": "Feature",
      "geometry": {
        "type": "Point",
        "coordinates": [
          8.410415902599027,
          49.02670436743975
        ]
      },
      "properties": {
        "name": "2_8g_ovl.png",
        "rotation": -26.016212427357196,
        "size": 96
      }
    },
    {
      "type": "Feature",
      "geometry": {
        "type": "Point",
        "coordinates": [
          8.39338863539658,
          48.995098804215864
        ]
      },
      "properties": {
        "name": "1_2b_ovl.png",
        "rotation": 22.829160816869354,
        "size": 96
      }
    },
    {
      "type": "Feature",
      "geometry": {
        "type": "Point",
        "coordinates": [
          8.38702921157357,
          49.020242245399466
        ]
      },
      "properties": {
        "name": "3_4e_ovl.png",
        "rotation": -26.2378160161506,
        "size": 96
      }
    },
    {
      "type": "Feature",
      "geometry": {
        "type": "Point",
        "coordinates": [
          8.398749325421182,
          49.02723901112808
        ]
      },
      "properties": {
        "name": "2_3b_ovl.png",
        "rotation": 24.824004663716856,
        "size": 96
      }
    },
    {
      "type": "Feature",
      "geometry": {
        "type": "Point",
        "coordinates": [
          8.365706392298618,
          49.03038647886737
        ]
      },
      "properties": {
        "name": "2_11d_ovl.png",
        "rotation": 9.183981396148639,
        "size": 96
      }
    },
    {
      "type": "Feature",
      "geometry": {
        "type": "Point",
        "coordinates": [
          8.38341745701006,
          48.99796517669405
        ]
      },
      "properties": {
        "name": "2_6d_ovl.png",
        "rotation": -18.889581918133523,
        "size": 96
      }
    },
    {
      "type": "Feature",
      "geometry": {
        "type": "Point",
        "coordinates": [
          8.361901647331656,
          49.01817274342795
        ]
      },
      "properties": {
        "name": "2_8d_ovl.png",
        "rotation": -27.964425114890627,
        "size": 96
      }
    },
    {
      "type": "Feature",
      "geometry": {
        "type": "Point",
        "coordinates": [
          8.410833057186052,
          48.98947333025781
        ]
      },
      "properties": {
        "name": "2_5g_ovl.png",
        "rotation": -7.718718105836643,
        "size": 96
      }
    },
    {
      "type": "Feature",
      "geometry": {
        "type": "Point",
        "coordinates": [
          8.401177429284967,
          49.01667582117074
        ]
      },
      "properties": {
        "name": "3_5a_ovl.png",
        "rotation": -25.359193455994564,
        "size": 96
      }
    },
    {
      "type": "Feature",
      "geometry": {
        "type": "Point",
        "coordinates": [
          8.388908808292499,
          49.01050607449568
        ]
      },
      "properties": {
        "name": "2_5e_ovl.png",
        "rotation": -15.316600047055688,
        "size": 96
      }
    },
    {
      "type": "Feature",
      "geometry": {
        "type": "Point",
        "coordinates": [
          8.411860678468067,
          49.007970495390424
        ]
      },
      "properties": {
        "name": "2_2b_ovl.png",
        "rotation": 9.175359471622663,
        "size": 96
      }
    },
    {
      "type": "Feature",
      "geometry": {
        "type": "Point",
        "coordinates": [
          8.430747558100528,
          48.99551665000792
        ]
      },
      "properties": {
        "name": "3_2b_ovl.png",
        "rotation": 20.37201601441192,
        "size": 96
      }
    },
    {
      "type": "Feature",
      "geometry": {
        "type": "Point",
        "coordinates": [
          8.384976271994526,
          48.99431494222489
        ]
      },
      "properties": {
        "name": "3_1g_ovl.png",
        "rotation": 22.295232050131034,
        "size": 96
      }
    },
    {
      "type": "Feature",
      "geometry": {
        "type": "Point",
        "coordinates": [
          8.364597852579196,
          48.995084827269324
        ]
      },
      "properties": {
        "name": "3_3b_ovl.png",
        "rotation": 18.93183557503575,
        "size": 96
      }
    },
    {
      "type": "Feature",
      "geometry": {
        "type": "Point",
        "coordinates": [
          8.37858889956899,
          49.021625392651714
        ]
      },
      "properties": {
        "name": "2_5h_ovl.png",
        "rotation": -11.717120879547135,
        "size": 96
      }
    },
    {
      "type": "Feature",
      "geometry": {
        "type": "Point",
        "coordinates": [
          8.421564480882319,
          49.01638912143686
        ]
      },
      "properties": {
        "name": "3_7a_ovl.png",
        "rotation": 21.977290980788496,
        "size": 96
      }
    },
    {
      "type": "Feature",
      "geometry": {
        "type": "Point",
        "coordinates": [
          8.399467239844462,
          49.00073033930435
        ]
      },
      "properties": {
        "name": "3_1h_ovl.png",
        "rotation": -29.301342556302068,
        "size": 96
      }
    },
    {
      "type": "Feature",
      "geometry": {
        "type": "Point",
        "coordinates": [
          8.365922545370172,
          49.03348043407198
        ]
      },
      "properties": {
        "name": "3_4d_ovl.png",
        "rotation": -7.85242902257734,
        "size": 96
      }
    },
    {
      "type": "Feature",
      "geometry": {
        "type": "Point",
        "coordinates": [
          8.368607599830314,
          48.996235340747255
        ]
      },
      "properties": {
        "name": "3_3g_ovl.png",
        "rotation": -22.0859782857407,
        "size": 96
      }
    },
    {
      "type": "Feature",
      "geometry": {
        "type": "Point",
        "coordinates": [
          8.384819781041234,
          49.00609524197642
        ]
      },
      "properties": {
        "name": "2_10e_ovl.png",
        "rotation": 4.841163113024365,
        "size": 96
      }
    },
    {
      "type": "Feature",
      "geometry": {
        "type": "Point",
        "coordinates": [
          8.414551485971357,
          49.03347516208217
        ]
      },
      "properties": {
        "name": "3_5f_ovl.png",
        "rotation": 16.228256946045462,
        "size": 96
      }
    },
    {
      "type": "Feature",
      "geometry": {
        "type": "Point",
        "coordinates": [
          8.3727442677323,
          49.005918225128156
        ]
      },
      "properties": {
        "name": "2_6c_ovl.png",
        "rotation": 24.457759569193733,
        "size": 96
      }
    },
    {
      "type": "Feature",
      "geometry": {
        "type": "Point",
        "coordinates": [
          8.408102693952541,
          48.99284907359594
        ]
      },
      "properties": {
        "name": "3_2g_ovl.png",
        "rotation": -25.01305626666313,
        "size": 96
      }
    },
    {
      "type": "Feature",
      "geometry": {
        "type": "Point",
        "coordinates": [
          8.371188135704756,
          49.033547318679275
        ]
      },
      "properties": {
        "name": "2_3h_ovl.png",
        "rotation": 8.08333982956929,
        "size": 96
      }
    },
    {
      "type": "Feature",
      "geometry": {
        "type": "Point",
        "coordinates": [
          8.405366961788511,
          48.98910399527117
        ]
      },
      "properties": {
        "name": "3_6b_ovl.png",
        "rotation": 26.725386973420882,
        "size": 96
      }
    },
    {
      "type": "Feature",
      "geometry": {
        "type": "Point",
        "coordinates": [
          8.36656560896076,
          49.02180118176696
        ]
      },
      "properties": {
        "name": "2_1a_ovl.png",
        "rotation": 3.9204656164339298,
        "size": 96
      }
    },
    {
      "type": "Feature",
      "geometry": {
        "type": "Point",
        "coordinates": [
          8.35915738804786,
          48.996680362983
        ]
      },
      "properties": {
        "name": "2_8e_ovl.png",
        "rotation": 3.0574346746999836,
        "size": 96
      }
    },
    {
      "type": "Feature",
      "geometry": {
        "type": "Point",
        "coordinates": [
          8.40093360954663,
          49.02322006994684
        ]
      },
      "properties": {
        "name": "2_5f_ovl.png",
        "rotation": 18.254871068243986,
        "size": 96
      }
    },
    {
      "type": "Feature",
      "geometry": {
        "type": "Point",
        "coordinates": [
          8.373544098853044,
          48.990686699825005
        ]
      },
      "properties": {
        "name": "2_10a_ovl.png",
        "rotation": -13.00532038708656,
        "size": 96
      }
    },
    {
      "type": "Feature",
      "geometry": {
        "type": "Point",
        "coordinates": [
          8.413492891592073,
          49.00050030611622
        ]
      },
      "properties": {
        "name": "3_7d_ovl.png",
        "rotation": 25.22921093731162,
        "size": 96
      }
    },
    {
      "type": "Feature",
      "geometry": {
        "type": "Point",
        "coordinates": [
          8.383772433441308,
          49.02594837424975
        ]
      },
      "properties": {
        "name": "3_2e_ovl.png",
        "rotation": -23.985047606546967,
        "size": 96
      }
    },
    {
      "type": "Feature",
      "geometry": {
        "type": "Point",
        "coordinates": [
          8.408686780505613,
          49.031082140596034
        ]
      },
      "properties": {
        "name": "3_5g_ovl.png",
        "rotation": 28.595403235142328,
        "size": 96
      }
    },
    {
      "type": "Feature",
      "geometry": {
        "type": "Point",
        "coordinates": [
          8.409299969780909,
          49.01704414943755
        ]
      },
      "properties": {
        "name": "2_10h_ovl.png",
        "rotation": 17.39897295627729,
        "size": 96
      }
    },
    {
      "type": "Feature",
      "geometry": {
        "type": "Point",
        "coordinates": [
          8.36596649832451,
          49.00702004289361
        ]
      },
      "properties": {
        "name": "2_9a_ovl.png",
        "rotation": 21.74381398137895,
        "size": 96
      }
    },
    {
      "type": "Feature",
      "geometry": {
        "type": "Point",
        "coordinates": [
          8.37914682082744,
          49.000837147968156
        ]
      },
      "properties": {
        "name": "2_4c_ovl.png",
        "rotation": 6.319698171920521,
        "size": 96
      }
    },
    {
      "type": "Feature",
      "geometry": {
        "type": "Point",
        "coordinates": [
          8.433535386771156,
          49.00828843879881
        ]
      },
      "properties": {
        "name": "2_8a_ovl.png",
        "rotation": 17.30401013885541,
        "size": 96
      }
    },
    {
      "type": "Feature",
      "geometry": {
        "type": "Point",
        "coordinates": [
          8.427314046144687,
          49.020183917367675
        ]
      },
      "properties": {
        "name": "2_7b_ovl.png",
        "rotation": 14.3093557231591,
        "size": 96
      }
    },
    {
      "type": "Feature",
      "geometry": {
        "type": "Point",
        "coordinates": [
          8.419842409065275,
          49.013762385513104
        ]
      },
      "properties": {
        "name": "2_8f_ovl.png",
        "rotation": 9.334245855611805,
        "size": 96
      }
    },
    {
      "type": "Feature",
      "geometry": {
        "type": "Point",
        "coordinates": [
          8.403098222942836,
          49.01325669469834
        ]
      },
      "properties": {
        "name": "2_1f_ovl.png",
        "rotation": 12.354126308938298,
        "size": 96
      }
    },
    {
      "type": "Feature",
      "geometry": {
        "type": "Point",
        "coordinates": [
          8.373771084270999,
          49.02474707289481
        ]
      },
      "properties": {
        "name": "3_4h_ovl.png",
        "rotation": 26.852403737119438,
        "size": 96
      }
    },
    {
      "type": "Feature",
      "geometry": {
        "type": "Point",
        "coordinates": [
          8.38034323208994,
          48.98985952394779
        ]
      },
      "properties": {
        "name": "2_2h_ovl.png",
        "rotation": -17.964920768173027,
        "size": 96
      }
    },
    {
      "type": "Feature",
      "geometry": {
        "type": "Point",
        "coordinates": [
          8.4083670763225,
          48.99749504466494
        ]
      },
      "properties": {
        "name": "2_4d_ovl.png",
        "rotation": 5.597395762860508,
        "size": 96
      }
    },
    {
      "type": "Feature",
      "geometry": {
        "type": "Point",
        "coordinates": [
          8.431034066468547,
          49.03631451056812
        ]
      },
      "properties": {
        "name": "3_2f_ovl.png",
        "rotation": -6.381831161056677,
        "size": 96
      }
    },
    {
      "type": "Feature",
      "geometry": {
        "type": "Point",
        "coordinates": [
          8.429067387443386,
          49.00714212036466
        ]
      },
      "properties": {
        "name": "3_5e_ovl.png",
        "rotation": 26.000905358963898,
        "size": 96
      }
    },
    {
      "type": "Feature",
      "geometry": {
        "type": "Point",
        "coordinates": [
          8.359956150948424,
          49.03503471631462
        ]
      },
      "properties": {
        "name": "2_10b_ovl.png",
        "rotation": 27.030629072932285,
        "size": 96
      }
    },
    {
      "type": "Feature",
      "geometry": {
        "type": "Point",
        "coordinates": [
          8.3916704755204,
          49.03695047160934
        ]
      },
      "properties": {
        "name": "2_2f_ovl.png",
        "rotation": 22.371211140582027,
        "size": 96
      }
    },
    {
      "type": "Feature",
      "geometry": {
        "type": "Point",
        "coordinates": [
          8.43281380702425,
          49.03127133840442
        ]
      },
      "properties": {
        "name": "3_5h_ovl.png",
        "rotation": -28.27755426316012,
        "size": 96
      }
    },
    {
      "type": "Feature",
      "geometry": {
        "type": "Point",
        "coordinates": [
          8.381394147927281,
          49.00788865968014
        ]
      },
      "properties": {
        "name": "2_3f_ovl.png",
        "rotation": 26.50886463905612,
        "size": 96
      }
    },
    {
      "type": "Feature",
      "geometry": {
        "type": "Point",
        "coordinates": [
          8.42417049688113,
          49.00448175417511
        ]
      },
      "properties": {
        "name": "2_11g_ovl.png",
        "rotation": -13.316595310357357,
        "size": 96
      }
    },
    {
      "type": "Feature",
      "geometry": {
        "type": "Point",
        "coordinates": [
          8.372370083635232,
          48.99307707617291
        ]
      },
      "properties": {
        "name": "2_6f_ovl.png",
        "rotation": -7.889473114974493,
        "size": 96
      }
    },
    {
      "type": "Feature",
      "geometry": {
        "type": "Point",
        "coordinates": [
          8.430703358137222,
          49.02342668584062
        ]
      },
      "properties": {
        "name": "2_2e_ovl.png",
        "rotation": 0.7635257361894006,
        "size": 96
      }
    },
    {
      "type": "Feature",
      "geometry": {
        "type": "Point",
        "coordinates": [
          8.4025724231038,
          48.993500540414445
        ]
      },
      "properties": {
        "name": "3_4g_ovl.png",
        "rotation": -20.88374881366517,
        "size": 96
      }
    },
    {
      "type": "Feature",
      "geometry": {
        "type": "Point",
        "coordinates": [
          8.406026115231818,
          49.03811977768639
        ]
      },
      "properties": {
        "name": "3_6a_ovl.png",
        "rotation": 13.20126872623613,
        "size": 96
      }
    },
    {
      "type": "Feature",
      "geometry": {
        "type": "Point",
        "coordinates": [
          8.369532623242502,
          49.01454658058759
        ]
      },
      "properties": {
        "name": "1_1b_ovl.png",
        "rotation": -25.34808341254049,
        "size": 96
      }
    },
    {
      "type": "Feature",
      "geometry": {
        "type": "Point",
        "coordinates": [
          8.426186523567386,
          49.025662392747996
        ]
      },
      "properties": {
        "name": "2_2a_ovl.png",
        "rotation": 19.04683144788988,
        "size": 96
      }
    }
  ]
}